{
  "norad_id": 43077,
  "name": "IRIDIUM 141",
  "history": [
    {
      "epoch": "2026-03-28T19:53:43.023552Z",
      "apogee_km": 779.2069979062298,
      "perigee_km": 776.1470287178572,
      "latitude_deg": -1.7464265593503015e-05,
      "longitude_deg": -129.09217208443127,
      "height_km": 780.553390557743,
      "semi_major_axis_km": 7155.814013312043,
      "eccentricity": 0.00021381,
      "inclination_deg": 86.4023,
      "raan_deg": 355.5809,
      "arg_perigee_deg": 83.5792,
      "mean_anomaly_deg": 276.5647,
      "mean_motion_rev_day": 14.34214786
    },
    {
      "epoch": "2026-03-29T04:16:03.084672Z",
      "apogee_km": 779.200107131016,
      "perigee_km": 776.1517308275297,
      "latitude_deg": -2.2946870394885842e-05,
      "longitude_deg": 104.83480395014406,
      "height_km": 780.5516797407049,
      "semi_major_axis_km": 7155.812918979273,
      "eccentricity": 0.000213,
      "inclination_deg": 86.4024,
      "raan_deg": 355.4353,
      "arg_perigee_deg": 83.5307,
      "mean_anomaly_deg": 276.6131,
      "mean_motion_rev_day": 14.34215115
    },
    {
      "epoch": "2026-03-30T03:42:35.252352Z",
      "apogee_km": 779.1973984212173,
      "perigee_km": 776.1518849865088,
      "latitude_deg": 3.4645545364505915e-06,
      "longitude_deg": 111.8303344281274,
      "height_km": 780.5486428488226,
      "semi_major_axis_km": 7155.811641703863,
      "eccentricity": 0.0002128,
      "inclination_deg": 86.4023,
      "raan_deg": 355.0276,
      "arg_perigee_deg": 83.458,
      "mean_anomaly_deg": 276.6858,
      "mean_motion_rev_day": 14.34215499
    },
    {
      "epoch": "2026-03-30T05:23:03.261120Z",
      "apogee_km": 779.1957859116083,
      "perigee_km": 776.1532779644594,
      "latitude_deg": 2.942151720721408e-05,
      "longitude_deg": 86.61576584226847,
      "height_km": 780.5476833575648,
      "semi_major_axis_km": 7155.811531938033,
      "eccentricity": 0.00021259,
      "inclination_deg": 86.4023,
      "raan_deg": 354.9985,
      "arg_perigee_deg": 83.4193,
      "mean_anomaly_deg": 276.7245,
      "mean_motion_rev_day": 14.34215532
    }
  ]
}